[{"OBJECT_NAME":"STARLINK-31849","OBJECT_ID":"2024-090E","EPOCH":"2026-03-09T07:44:08.014272","MEAN_MOTION":15.27592743,"ECCENTRICITY":2.438e-5,"INCLINATION":42.9996,"RA_OF_ASC_NODE":178.6774,"ARG_OF_PERICENTER":296.9087,"MEAN_ANOMALY":63.1739,"EPHEMERIS_TYPE":0,"CLASSIFICATION_TYPE":"U","NORAD_CAT_ID":59734,"ELEMENT_SET_NO":999,"REV_AT_EPOCH":10346,"BSTAR":-0.00015614934,"MEAN_MOTION_DOT":-4.557e-5,"MEAN_MOTION_DDOT":0},{"OBJECT_NAME":"CZ-6A DEB","OBJECT_ID":"2024-140JQ","EPOCH":"2026-03-09T16:05:49.477056","MEAN_MOTION":15.15394204,"ECCENTRICITY":0.00800164,"INCLINATION":89.0638,"RA_OF_ASC_NODE":284.0631,"ARG_OF_PERICENTER":105.771,"MEAN_ANOMALY":255.2376,"EPHEMERIS_TYPE":0,"CLASSIFICATION_TYPE":"U","NORAD_CAT_ID":60861,"ELEMENT_SET_NO":999,"REV_AT_EPOCH":8511,"BSTAR":0.0025246282,"MEAN_MOTION_DOT":0.00051962,"MEAN_MOTION_DDOT":0}]
